NORAD_CAT_ID,OBJECT_NAME,OBJECT_TYPE,EPOCH,MEAN_MOTION,ECCENTRICITY,INCLINATION,RA_OF_ASC_NODE,ARG_OF_PERICENTER,MEAN_ANOMALY,BSTAR,MEAN_MOTION_DOT,MEAN_MOTION_DDOT,TLE_LINE0,TLE_LINE1,TLE_LINE2,SEMIMAJOR_AXIS,PERIOD,APOGEE,PERIGEE,DECAYED
50817.0,STARLINK-3341,PAYLOAD,2023-11-19 07:58:37,15.08844316,0.0001427,53.2181,346.1199,88.4798,271.6358,0.00011823,1.594e-05,0.0,0 STARLINK-3341,1 50817U 22001Q   23323.33237696  .00001594  00000-0  11823-3 0  9995,2 50817  53.2181 346.1199 0001427  88.4798 271.6358 15.08844316103392,6917.867,95.437,540.719,538.745,0.0
50817.0,STARLINK-3341,PAYLOAD,2023-11-19 19:06:19,15.08846542,0.0001403,53.2189,344.0385,85.2487,274.8666,9.3506e-05,1.201e-05,0.0,0 STARLINK-3341,1 50817U 22001Q   23323.79605403  .00001201  00000-0  93506-4 0  9994,2 50817  53.2189 344.0385 0001403  85.2487 274.8666 15.08846542104715,6917.86,95.437,540.696,538.755,0.0
50817.0,STARLINK-3341,PAYLOAD,2023-11-20 11:00:10,15.08848945,0.0001508,53.2178,341.0642,92.9632,267.1532,8.8478e-05,1.121e-05,0.0,0 STARLINK-3341,1 50817U 22001Q   23324.45845140  .00001121  00000-0  88478-4 0  9995,2 50817  53.2178 341.0642 0001508  92.9632 267.1532 15.08848945103567,6917.853,95.437,540.761,538.675,0.0
50817.0,STARLINK-3341,PAYLOAD,2023-11-20 23:43:15,15.08838435,0.0001401,53.2171,338.6856,89.5772,270.5381,3.8904e-05,3.31e-06,0.0,0 STARLINK-3341,1 50817U 22001Q   23324.98837903  .00000331  00000-0  38904-4 0  9992,2 50817  53.2171 338.6856 0001401  89.5772 270.5381 15.08838435104898,6917.885,95.438,540.719,538.781,0.0
50817.0,STARLINK-3341,PAYLOAD,2023-11-21 07:40:11,15.08846541,0.0001626,53.2178,337.1968,105.3495,254.7677,2.8859e-05,1.71e-06,0.0,0 STARLINK-3341,1 50817U 22001Q   23325.31957359  .00000171  00000-0  28859-4 0  9998,2 50817  53.2178 337.1968 0001626 105.3495 254.7677 15.08846541104946,6917.86,95.437,540.85,538.601,0.0
50817.0,STARLINK-3341,PAYLOAD,2023-11-22 01:09:25,15.08838458,0.000138,53.2179,333.9268,98.7551,261.3597,0.00014517,2.023e-05,0.0,0 STARLINK-3341,1 50817U 22001Q   23326.04821535  .00002023  00000-0  14517-3 0  9998,2 50817  53.2179 333.9268 0001380  98.7551 261.3597 15.08838458105055,6917.885,95.438,540.705,538.795,0.0
50817.0,STARLINK-3341,PAYLOAD,2023-11-22 07:30:57,15.08852141,0.0001567,53.2187,332.7405,91.9112,268.2059,0.00015111,2.119e-05,0.0,0 STARLINK-3341,1 50817U 22001Q   23326.31316773  .00002119  00000-0  15111-3 0  9998,2 50817  53.2187 332.7405 0001567  91.9112 268.2059 15.08852141105097,6917.843,95.437,540.792,538.624,0.0
50817.0,STARLINK-3341,PAYLOAD,2023-11-23 07:21:44,15.0886107,0.0001792,53.2181,328.2805,94.0168,266.1029,0.00030513,4.574e-05,0.0,0 STARLINK-3341,1 50817U 22001Q   23327.30676068  .00004574  00000-0  30513-3 0  9994,2 50817  53.2181 328.2805 0001792  94.0168 266.1029 15.08861070103992,6917.816,95.436,540.921,538.441,0.0
50817.0,STARLINK-3341,PAYLOAD,2023-11-24 04:01:46,15.08813657,0.0001681,53.2179,324.4136,82.9851,277.1333,-0.00055635,-9.125e-05,0.0,0 STARLINK-3341,1 50817U 22001Q   23328.16790056 -.00009125  00000-0 -55635-3 0  9994,2 50817  53.2179 324.4136 0001681  82.9851 277.1333 15.08813657105378,6917.961,95.439,540.989,538.663,0.0
50817.0,STARLINK-3341,PAYLOAD,2023-11-24 10:23:19,15.08815317,0.0001671,53.2163,323.2218,96.5404,263.5779,-0.00041882,-6.943e-05,0.0,0 STARLINK-3341,1 50817U 22001Q   23328.43286258 -.00006943  00000-0 -41882-3 0  9992,2 50817  53.2163 323.2218 0001671  96.5404 263.5779 15.08815317104167,6917.956,95.439,540.977,538.665,0.0
50817.0,STARLINK-3341,PAYLOAD,2023-11-25 03:52:33,15.08844007,0.0001669,53.2167,319.9523,85.7663,274.352,0.0003732,5.657e-05,0.0,0 STARLINK-3341,1 50817U 22001Q   23329.16150157  .00005657  00000-0  37320-3 0  9992,2 50817  53.2167 319.9523 0001669  85.7663 274.3520 15.08844007105529,6917.868,95.437,540.888,538.579,0.0
50817.0,STARLINK-3341,PAYLOAD,2023-11-25 07:03:20,15.08861439,0.0001749,53.216,319.3576,80.9535,279.1655,0.0019226,0.00030461,0.0,0 STARLINK-3341,1 50817U 22001Q   23329.29398663  .00030461  00000-0  19226-2 0  9997,2 50817  53.2160 319.3576 0001749  80.9535 279.1655 15.08861439104291,6917.815,95.436,540.89,538.47,0.0
50817.0,STARLINK-3341,PAYLOAD,2023-11-25 22:57:11,15.08875662,0.0001823,53.2173,316.3849,98.0203,262.0996,0.0016784,0.00026551,0.0,0 STARLINK-3341,1 50817U 22001Q   23329.95637886  .00026551  00000-0  16784-2 0  9994,2 50817  53.2173 316.3849 0001823  98.0203 262.0996 15.08875662104393,6917.771,95.435,540.897,538.375,0.0
50817.0,STARLINK-3341,PAYLOAD,2023-11-26 08:29:29,15.08885773,0.0001913,53.2153,314.599,88.5496,271.5715,0.0014367,0.0002268,0.0,0 STARLINK-3341,1 50817U 22001Q   23330.35381032  .00022680  00000-0  14367-2 0  9993,2 50817  53.2153 314.5990 0001913  88.5496 271.5715 15.08885773105700,6917.74,95.435,540.929,538.282,0.0
50817.0,STARLINK-3341,PAYLOAD,2023-11-26 22:47:59,15.0881656,0.0002447,53.2162,311.9215,100.2273,259.8995,0.00047947,7.346e-05,0.0,0 STARLINK-3341,1 50817U 22001Q   23330.94998910  .00007346  00000-0  47947-3 0  9990,2 50817  53.2162 311.9215 0002447 100.2273 259.8995 15.08816560104547,6917.952,95.439,541.51,538.124,0.0
50817.0,STARLINK-3341,PAYLOAD,2023-11-27 03:34:09,15.08796159,0.0001841,53.2164,311.027,92.451,267.6693,0.00044329,6.766e-05,0.0,0 STARLINK-3341,1 50817U 22001Q   23331.14871594  .00006766  00000-0  44329-3 0  9997,2 50817  53.2164 311.0270 0001841  92.4510 267.6693 15.08796159105829,6918.014,95.44,541.153,538.606,0.0
50817.0,STARLINK-3341,PAYLOAD,2023-11-27 08:20:19,15.08795932,0.0001636,53.2171,310.1355,95.2085,264.9093,0.00070898,0.00011,0.0,0 STARLINK-3341,1 50817U 22001Q   23331.34744219  .00011000  00000-0  70898-3 0  9999,2 50817  53.2171 310.1355 0001636  95.2085 264.9093 15.08795932104608,6918.015,95.44,541.012,538.748,0.0
50817.0,STARLINK-3341,PAYLOAD,2023-11-28 01:49:33,15.08847955,0.0002141,53.2186,306.8697,45.0025,315.114,0.0018761,0.00029703,0.0,0 STARLINK-3341,1 50817U 22001Q   23332.07608553  .00029703  00000-0  18761-2 0  9999,2 50817  53.2186 306.8697 0002141  45.0025 315.1140 15.08847955105969,6917.856,95.437,541.202,538.24,0.0
50817.0,STARLINK-3341,PAYLOAD,2023-11-28 05:00:19,15.08885706,0.0002125,53.2172,306.2759,79.3742,280.7489,0.0024818,0.00039482,0.0,0 STARLINK-3341,1 50817U 22001Q   23332.20855764  .00039482  00000-0  24818-2 0  9997,2 50817  53.2172 306.2759 0002125  79.3742 280.7489 15.08885706105986,6917.741,95.435,541.076,538.136,0.0
50817.0,STARLINK-3341,PAYLOAD,2023-11-29 03:15:42,15.08881052,0.0002614,53.2178,302.1082,123.3633,236.7609,0.0017951,0.0002843,0.0,0 STARLINK-3341,1 50817U 22001Q   23333.13590339  .00028430  00000-0  17951-2 0  9995,2 50817  53.2178 302.1082 0002614 123.3633 236.7609 15.08881052106120,6917.755,95.435,541.428,537.812,0.0
50817.0,STARLINK-3341,PAYLOAD,2023-11-29 08:01:51,15.0887332,0.0002297,53.2178,301.2166,108.8699,251.2543,0.00094364,0.00014776,0.0,0 STARLINK-3341,1 50817U 22001Q   23333.33462100  .00014776  00000-0  94364-3 0  9993,2 50817  53.2178 301.2166 0002297 108.8699 251.2543 15.08873320106151,6917.779,95.435,541.233,538.055,0.0
50817.0,STARLINK-3341,PAYLOAD,2023-11-30 03:06:30,15.08810596,0.0002141,53.2185,297.6517,96.1304,263.9932,0.00030325,4.538e-05,0.0,0 STARLINK-3341,1 50817U 22001Q   23334.12952218  .00004538  00000-0  30325-3 0  9997,2 50817  53.2185 297.6517 0002141  96.1304 263.9932 15.08810596106278,6917.97,95.439,541.316,538.354,0.0
50817.0,STARLINK-3341,PAYLOAD,2023-11-30 07:52:40,15.08793635,0.0002331,53.218,296.7559,91.1589,268.967,-1.4228e-05,-5.14e-06,0.0,0 STARLINK-3341,1 50817U 22001Q   23334.32825069 -.00000514  00000-0 -14228-4 0  9999,2 50817  53.2180 296.7559 0002331  91.1589 268.9670 15.08793635106302,6918.022,95.44,541.5,538.275,0.0
50817.0,STARLINK-3341,PAYLOAD,2023-12-01 04:32:41,15.08875405,0.0002582,53.2178,292.8868,93.2628,266.8659,0.0030581,0.00048768,0.0,0 STARLINK-3341,1 50817U 22001Q   23335.18936501  .00048768  00000-0  30581-2 0  9997,2 50817  53.2178 292.8868 0002582  93.2628 266.8659 15.08875405106438,6917.772,95.435,541.423,537.851,0.0
50817.0,STARLINK-3341,PAYLOAD,2023-12-01 06:08:03,15.0890294,0.0002473,53.2175,292.5995,85.5611,274.5664,0.0031138,0.00049705,0.0,0 STARLINK-3341,1 50817U 22001Q   23335.25560043  .00049705  00000-0  31138-2 0  9990,2 50817  53.2175 292.5995 0002473  85.5611 274.5664 15.08902940106446,6917.688,95.434,541.264,537.842,0.0
50817.0,STARLINK-3341,PAYLOAD,2023-12-02 01:12:40,15.08890035,0.0002837,53.2181,289.0301,69.0487,291.0809,0.0034895,0.00055766,0.0,0 STARLINK-3341,1 50817U 22001Q   23336.05047112  .00055766  00000-0  34895-2 0  9993,2 50817  53.2181 289.0301 0002837  69.0487 291.0809 15.08890035106566,6917.727,95.434,541.555,537.63,0.0
50817.0,STARLINK-3341,PAYLOAD,2023-12-02 05:58:49,15.08947829,0.0002545,53.2169,288.1382,101.4696,258.6583,0.011123,0.00181878,0.0,0 STARLINK-3341,1 50817U 22001Q   23336.24918099  .00181878  00000-0  11123-1 0  9997,2 50817  53.2169 288.1382 0002545 101.4696 258.6583 15.08947829106595,6917.551,95.431,541.176,537.655,0.0
50817.0,STARLINK-3341,PAYLOAD,2023-12-03 02:38:51,15.08824602,0.0002303,53.2165,284.269,77.2564,282.8685,0.00085317,0.00013311,0.0,0 STARLINK-3341,1 50817U 22001Q   23337.11031364  .00013311  00000-0  85317-3 0  9999,2 50817  53.2165 284.2690 0002303  77.2564 282.8685 15.08824602106726,6917.927,95.439,541.386,538.199,0.0
50817.0,STARLINK-3341,PAYLOAD,2023-12-03 04:14:14,15.08806383,0.0002604,53.2165,283.9724,84.5087,275.6202,0.00093155,0.00014555,0.0,0 STARLINK-3341,1 50817U 22001Q   23337.17655582  .00014555  00000-0  93155-3 0  9999,2 50817  53.2165 283.9724 0002604  84.5087 275.6202 15.08806383106737,6917.983,95.44,541.65,538.047,0.0
50817.0,STARLINK-3341,PAYLOAD,2023-12-04 05:40:25,15.08842073,0.000265,53.2164,279.2151,85.69,274.4394,0.0011434,0.00017957,0.0,0 STARLINK-3341,1 50817U 22001Q   23338.23640716  .00017957  00000-0  11434-2 0  9998,2 50817  53.2164 279.2151 0002650  85.6900 274.4394 15.08842073106897,6917.874,95.437,541.572,537.906,0.0
